[{"OBJECT_NAME":"STARLINK-36353","OBJECT_ID":"2026-032Z","EPOCH":"2026-03-07T13:38:40.697376","MEAN_MOTION":15.75277147,"ECCENTRICITY":0.00014424,"INCLINATION":97.2848,"RA_OF_ASC_NODE":253.0111,"ARG_OF_PERICENTER":83.9076,"MEAN_ANOMALY":276.2353,"EPHEMERIS_TYPE":0,"CLASSIFICATION_TYPE":"U","NORAD_CAT_ID":67820,"ELEMENT_SET_NO":999,"REV_AT_EPOCH":445,"BSTAR":0.0015504218,"MEAN_MOTION_DOT":0.00238601,"MEAN_MOTION_DDOT":0},{"OBJECT_NAME":"STARLINK-36644","OBJECT_ID":"2026-033A","EPOCH":"2026-03-07T14:39:42.570432","MEAN_MOTION":15.82450958,"ECCENTRICITY":0.00025967,"INCLINATION":42.9977,"RA_OF_ASC_NODE":284.2648,"ARG_OF_PERICENTER":251.6239,"MEAN_ANOMALY":108.4351,"EPHEMERIS_TYPE":0,"CLASSIFICATION_TYPE":"U","NORAD_CAT_ID":67821,"ELEMENT_SET_NO":999,"REV_AT_EPOCH":429,"BSTAR":0.0038534558,"MEAN_MOTION_DOT":0.00921648,"MEAN_MOTION_DDOT":0},{"OBJECT_NAME":"STARLINK-36643","OBJECT_ID":"2026-033B","EPOCH":"2026-03-07T14:38:37.595040","MEAN_MOTION":15.82429652,"ECCENTRICITY":0.00035232,"INCLINATION":42.9975,"RA_OF_ASC_NODE":284.2589,"ARG_OF_PERICENTER":260.5692,"MEAN_ANOMALY":99.4782,"EPHEMERIS_TYPE":0,"CLASSIFICATION_TYPE":"U","NORAD_CAT_ID":67822,"ELEMENT_SET_NO":999,"REV_AT_EPOCH":429,"BSTAR":0.0037467406,"MEAN_MOTION_DOT":0.00892022,"MEAN_MOTION_DDOT":0},{"OBJECT_NAME":"STARLINK-36646","OBJECT_ID":"2026-033C","EPOCH":"2026-03-07T14:37:32.927232","MEAN_MOTION":15.8207226,"ECCENTRICITY":0.00020687,"INCLINATION":42.9975,"RA_OF_ASC_NODE":284.2532,"ARG_OF_PERICENTER":263.5458,"MEAN_ANOMALY":96.5178,"EPHEMERIS_TYPE":0,"CLASSIFICATION_TYPE":"U","NORAD_CAT_ID":67823,"ELEMENT_SET_NO":999,"REV_AT_EPOCH":429,"BSTAR":0.0014700325,"MEAN_MOTION_DOT":0.00321629,"MEAN_MOTION_DDOT":0},{"OBJECT_NAME":"STARLINK-36647","OBJECT_ID":"2026-033D","EPOCH":"2026-03-07T14:36:28.238688","MEAN_MOTION":15.82042198,"ECCENTRICITY":0.00018906,"INCLINATION":42.9977,"RA_OF_ASC_NODE":284.2471,"ARG_OF_PERICENTER":281.129,"MEAN_ANOMALY":78.9369,"EPHEMERIS_TYPE":0,"CLASSIFICATION_TYPE":"U","NORAD_CAT_ID":67824,"ELEMENT_SET_NO":999,"REV_AT_EPOCH":429,"BSTAR":0.0012094518,"MEAN_MOTION_DOT":0.00262324,"MEAN_MOTION_DDOT":0},{"OBJECT_NAME":"STARLINK-36648","OBJECT_ID":"2026-033E","EPOCH":"2026-03-07T14:35:23.353152","MEAN_MOTION":15.82096027,"ECCENTRICITY":0.00019985,"INCLINATION":42.9978,"RA_OF_ASC_NODE":284.2412,"ARG_OF_PERICENTER":287.4872,"MEAN_ANOMALY":72.5782,"EPHEMERIS_TYPE":0,"CLASSIFICATION_TYPE":"U","NORAD_CAT_ID":67825,"ELEMENT_SET_NO":999,"REV_AT_EPOCH":429,"BSTAR":0.0019961235,"MEAN_MOTION_DOT":0.00443706,"MEAN_MOTION_DDOT":0},{"OBJECT_NAME":"STARLINK-35865","OBJECT_ID":"2026-033F","EPOCH":"2026-03-07T14:34:18.869376","MEAN_MOTION":15.82455738,"ECCENTRICITY":0.00026232,"INCLINATION":42.9973,"RA_OF_ASC_NODE":284.235,"ARG_OF_PERICENTER":260.398,"MEAN_ANOMALY":99.6596,"EPHEMERIS_TYPE":0,"CLASSIFICATION_TYPE":"U","NORAD_CAT_ID":67826,"ELEMENT_SET_NO":999,"REV_AT_EPOCH":429,"BSTAR":0.0038907769,"MEAN_MOTION_DOT":0.00931904,"MEAN_MOTION_DDOT":0},{"OBJECT_NAME":"STARLINK-36289","OBJECT_ID":"2026-033G","EPOCH":"2026-03-07T00:55:02.292672","MEAN_MOTION":15.82125539,"ECCENTRICITY":0.00021743,"INCLINATION":42.9977,"RA_OF_ASC_NODE":287.7109,"ARG_OF_PERICENTER":277.3201,"MEAN_ANOMALY":82.7423,"EPHEMERIS_TYPE":0,"CLASSIFICATION_TYPE":"U","NORAD_CAT_ID":67827,"ELEMENT_SET_NO":999,"REV_AT_EPOCH":420,"BSTAR":0.0013335724,"MEAN_MOTION_DOT":0.00291421,"MEAN_MOTION_DDOT":0},{"OBJECT_NAME":"STARLINK-36670","OBJECT_ID":"2026-033H","EPOCH":"2026-03-07T14:32:09.316032","MEAN_MOTION":15.82045293,"ECCENTRICITY":0.00017903,"INCLINATION":42.9978,"RA_OF_ASC_NODE":284.2224,"ARG_OF_PERICENTER":285.9167,"MEAN_ANOMALY":74.1507,"EPHEMERIS_TYPE":0,"CLASSIFICATION_TYPE":"U","NORAD_CAT_ID":67828,"ELEMENT_SET_NO":999,"REV_AT_EPOCH":429,"BSTAR":0.0011663735,"MEAN_MOTION_DOT":0.00252713,"MEAN_MOTION_DDOT":0},{"OBJECT_NAME":"STARLINK-36144","OBJECT_ID":"2026-033J","EPOCH":"2026-03-07T14:31:04.717344","MEAN_MOTION":15.8244274,"ECCENTRICITY":0.00029099,"INCLINATION":42.9972,"RA_OF_ASC_NODE":284.2165,"ARG_OF_PERICENTER":261.5769,"MEAN_ANOMALY":98.4773,"EPHEMERIS_TYPE":0,"CLASSIFICATION_TYPE":"U","NORAD_CAT_ID":67829,"ELEMENT_SET_NO":999,"REV_AT_EPOCH":429,"BSTAR":0.0038096458,"MEAN_MOTION_DOT":0.00909475,"MEAN_MOTION_DDOT":0},{"OBJECT_NAME":"STARLINK-36611","OBJECT_ID":"2026-033K","EPOCH":"2026-03-07T14:29:59.734176","MEAN_MOTION":15.82063673,"ECCENTRICITY":0.00021337,"INCLINATION":42.9975,"RA_OF_ASC_NODE":284.2105,"ARG_OF_PERICENTER":290.4161,"MEAN_ANOMALY":69.6481,"EPHEMERIS_TYPE":0,"CLASSIFICATION_TYPE":"U","NORAD_CAT_ID":67830,"ELEMENT_SET_NO":999,"REV_AT_EPOCH":429,"BSTAR":0.0017662873,"MEAN_MOTION_DOT":0.00389479,"MEAN_MOTION_DDOT":0},{"OBJECT_NAME":"STARLINK-36661","OBJECT_ID":"2026-033L","EPOCH":"2026-03-07T14:28:54.998112","MEAN_MOTION":15.82098093,"ECCENTRICITY":0.00014726,"INCLINATION":42.9976,"RA_OF_ASC_NODE":284.204,"ARG_OF_PERICENTER":258.5832,"MEAN_ANOMALY":101.4874,"EPHEMERIS_TYPE":0,"CLASSIFICATION_TYPE":"U","NORAD_CAT_ID":67831,"ELEMENT_SET_NO":999,"REV_AT_EPOCH":429,"BSTAR":0.0020094487,"MEAN_MOTION_DOT":0.00446892,"MEAN_MOTION_DDOT":0},{"OBJECT_NAME":"STARLINK-36662","OBJECT_ID":"2026-033M","EPOCH":"2026-03-07T14:34:52.827168","MEAN_MOTION":15.8448319,"ECCENTRICITY":0.00018935,"INCLINATION":42.9958,"RA_OF_ASC_NODE":283.328,"ARG_OF_PERICENTER":285.2613,"MEAN_ANOMALY":74.805,"EPHEMERIS_TYPE":0,"CLASSIFICATION_TYPE":"U","NORAD_CAT_ID":67832,"ELEMENT_SET_NO":999,"REV_AT_EPOCH":430,"BSTAR":0.0012773792,"MEAN_MOTION_DOT":0.0031285,"MEAN_MOTION_DDOT":0},{"OBJECT_NAME":"STARLINK-36659","OBJECT_ID":"2026-033N","EPOCH":"2026-03-07T14:27:50.486688","MEAN_MOTION":15.82039938,"ECCENTRICITY":0.00021366,"INCLINATION":42.9975,"RA_OF_ASC_NODE":284.1978,"ARG_OF_PERICENTER":297.3072,"MEAN_ANOMALY":62.7582,"EPHEMERIS_TYPE":0,"CLASSIFICATION_TYPE":"U","NORAD_CAT_ID":67833,"ELEMENT_SET_NO":999,"REV_AT_EPOCH":429,"BSTAR":0.0010386776,"MEAN_MOTION_DOT":0.00224188,"MEAN_MOTION_DDOT":0},{"OBJECT_NAME":"STARLINK-36655","OBJECT_ID":"2026-033P","EPOCH":"2026-03-07T15:57:39.886272","MEAN_MOTION":15.82129122,"ECCENTRICITY":0.00018916,"INCLINATION":42.9974,"RA_OF_ASC_NODE":283.8045,"ARG_OF_PERICENTER":231.1275,"MEAN_ANOMALY":128.9428,"EPHEMERIS_TYPE":0,"CLASSIFICATION_TYPE":"U","NORAD_CAT_ID":67834,"ELEMENT_SET_NO":999,"REV_AT_EPOCH":430,"BSTAR":0.0023373851,"MEAN_MOTION_DOT":0.00525483,"MEAN_MOTION_DDOT":0},{"OBJECT_NAME":"STARLINK-36657","OBJECT_ID":"2026-033Q","EPOCH":"2026-03-07T14:25:41.014560","MEAN_MOTION":15.82437477,"ECCENTRICITY":0.00037276,"INCLINATION":42.9971,"RA_OF_ASC_NODE":284.1853,"ARG_OF_PERICENTER":256.122,"MEAN_ANOMALY":103.9237,"EPHEMERIS_TYPE":0,"CLASSIFICATION_TYPE":"U","NORAD_CAT_ID":67835,"ELEMENT_SET_NO":999,"REV_AT_EPOCH":429,"BSTAR":0.003778353,"MEAN_MOTION_DOT":0.00900793,"MEAN_MOTION_DDOT":0},{"OBJECT_NAME":"STARLINK-36650","OBJECT_ID":"2026-033R","EPOCH":"2026-03-07T15:55:30.631008","MEAN_MOTION":15.81994899,"ECCENTRICITY":0.00014591,"INCLINATION":42.9974,"RA_OF_ASC_NODE":283.7918,"ARG_OF_PERICENTER":242.531,"MEAN_ANOMALY":117.5413,"EPHEMERIS_TYPE":0,"CLASSIFICATION_TYPE":"U","NORAD_CAT_ID":67836,"ELEMENT_SET_NO":999,"REV_AT_EPOCH":430,"BSTAR":0.0016950721,"MEAN_MOTION_DOT":0.00371788,"MEAN_MOTION_DDOT":0},{"OBJECT_NAME":"STARLINK-36649","OBJECT_ID":"2026-033S","EPOCH":"2026-03-07T15:54:25.894080","MEAN_MOTION":15.81998884,"ECCENTRICITY":0.00018691,"INCLINATION":42.9976,"RA_OF_ASC_NODE":283.785,"ARG_OF_PERICENTER":227.9805,"MEAN_ANOMALY":132.0908,"EPHEMERIS_TYPE":0,"CLASSIFICATION_TYPE":"U","NORAD_CAT_ID":67837,"ELEMENT_SET_NO":999,"REV_AT_EPOCH":430,"BSTAR":0.0019490834,"MEAN_MOTION_DOT":0.00430619,"MEAN_MOTION_DDOT":0},{"OBJECT_NAME":"STARLINK-36654","OBJECT_ID":"2026-033T","EPOCH":"2026-03-07T15:53:21.026688","MEAN_MOTION":15.8212696,"ECCENTRICITY":0.00040954,"INCLINATION":42.9974,"RA_OF_ASC_NODE":283.7798,"ARG_OF_PERICENTER":282.6777,"MEAN_ANOMALY":77.3637,"EPHEMERIS_TYPE":0,"CLASSIFICATION_TYPE":"U","NORAD_CAT_ID":67838,"ELEMENT_SET_NO":999,"REV_AT_EPOCH":430,"BSTAR":0.0021951987,"MEAN_MOTION_DOT":0.0049151,"MEAN_MOTION_DDOT":0},{"OBJECT_NAME":"STARLINK-36652","OBJECT_ID":"2026-033U","EPOCH":"2026-03-07T14:21:22.039200","MEAN_MOTION":15.82209244,"ECCENTRICITY":0.0002074,"INCLINATION":42.9972,"RA_OF_ASC_NODE":284.1605,"ARG_OF_PERICENTER":267.5669,"MEAN_ANOMALY":92.4965,"EPHEMERIS_TYPE":0,"CLASSIFICATION_TYPE":"U","NORAD_CAT_ID":67839,"ELEMENT_SET_NO":999,"REV_AT_EPOCH":429,"BSTAR":0.0028142381,"MEAN_MOTION_DOT":0.0064408,"MEAN_MOTION_DDOT":0},{"OBJECT_NAME":"STARLINK-36651","OBJECT_ID":"2026-033V","EPOCH":"2026-03-07T15:51:11.382624","MEAN_MOTION":15.82044185,"ECCENTRICITY":0.0001968,"INCLINATION":42.9982,"RA_OF_ASC_NODE":283.767,"ARG_OF_PERICENTER":199.7029,"MEAN_ANOMALY":160.3767,"EPHEMERIS_TYPE":0,"CLASSIFICATION_TYPE":"U","NORAD_CAT_ID":67840,"ELEMENT_SET_NO":999,"REV_AT_EPOCH":430,"BSTAR":0.001746153,"MEAN_MOTION_DOT":0.00384457,"MEAN_MOTION_DDOT":0},{"OBJECT_NAME":"STARLINK-36656","OBJECT_ID":"2026-033W","EPOCH":"2026-03-07T15:50:06.744192","MEAN_MOTION":15.82129101,"ECCENTRICITY":0.0001984,"INCLINATION":42.9974,"RA_OF_ASC_NODE":283.7616,"ARG_OF_PERICENTER":226.1655,"MEAN_ANOMALY":133.9053,"EPHEMERIS_TYPE":0,"CLASSIFICATION_TYPE":"U","NORAD_CAT_ID":67841,"ELEMENT_SET_NO":999,"REV_AT_EPOCH":430,"BSTAR":0.0025103944,"MEAN_MOTION_DOT":0.0056719,"MEAN_MOTION_DDOT":0},{"OBJECT_NAME":"STARLINK-36653","OBJECT_ID":"2026-033X","EPOCH":"2026-03-07T15:49:02.205120","MEAN_MOTION":15.82055208,"ECCENTRICITY":0.00015672,"INCLINATION":42.9976,"RA_OF_ASC_NODE":283.7547,"ARG_OF_PERICENTER":203.8855,"MEAN_ANOMALY":156.1944,"EPHEMERIS_TYPE":0,"CLASSIFICATION_TYPE":"U","NORAD_CAT_ID":67842,"ELEMENT_SET_NO":999,"REV_AT_EPOCH":430,"BSTAR":0.0019694728,"MEAN_MOTION_DOT":0.00436584,"MEAN_MOTION_DDOT":0}]
